SENTINEL-6              
1 46984U 20086A   24223.18212990 -.00000047  00000+0  59272-4 0  9992
2 46984  66.0410  99.1249 0007790 269.8098  90.2024 12.80930454173744
